XRISM                   
1 57800U 23137A   24026.58135191  .00005842  00000+0  45967-3 0  9995
2 57800  31.0014 199.0369 0009734 237.9149 122.0542 14.99361421 21173
